[{"OBJECT_NAME":"STARLINK-33909","OBJECT_ID":"2025-092A","EPOCH":"2026-03-09T07:44:47.668416","MEAN_MOTION":15.27595619,"ECCENTRICITY":0.00014685,"INCLINATION":42.996,"RA_OF_ASC_NODE":175.0437,"ARG_OF_PERICENTER":151.3355,"MEAN_ANOMALY":208.7577,"EPHEMERIS_TYPE":0,"CLASSIFICATION_TYPE":"U","NORAD_CAT_ID":63804,"ELEMENT_SET_NO":999,"REV_AT_EPOCH":4855,"BSTAR":0.0013471285,"MEAN_MOTION_DOT":0.00037012,"MEAN_MOTION_DDOT":0},{"OBJECT_NAME":"CZ-6A DEB","OBJECT_ID":"2022-151SD","EPOCH":"2026-03-09T21:25:15.700512","MEAN_MOTION":15.24469357,"ECCENTRICITY":0.00248717,"INCLINATION":98.6538,"RA_OF_ASC_NODE":157.5128,"ARG_OF_PERICENTER":174.047,"MEAN_ANOMALY":186.1065,"EPHEMERIS_TYPE":0,"CLASSIFICATION_TYPE":"U","NORAD_CAT_ID":54940,"ELEMENT_SET_NO":999,"REV_AT_EPOCH":17680,"BSTAR":0.0087519903,"MEAN_MOTION_DOT":0.00223015,"MEAN_MOTION_DDOT":0}]
